HULIANWANG DIGUI-145    
1 67443U 26007J   26085.26634368 -.00000081  00000+0  92997-4 0  9997
2 67443  50.0115  22.8702 0000191  67.6959 292.3934 13.29327503  9761
GUOWANG GROUP 20 OBJECT*
1 68129U 26047A   26083.47132621 -.00000112  00000+0  25605-4 0  9996
2 68129  50.0057  10.2567 0000455 280.6416  79.4436 14.00120126  1648
GUOWANG GROUP 20 OBJECT*
1 68130U 26047B   26083.46957175 -.00000077  00000+0  49172-4 0  9991
2 68130  50.0060  10.2480 0000229 293.0264  67.0614 14.00458019  1631
GUOWANG GROUP 20 OBJECT*
1 68131U 26047C   26082.89746215 -.00000117  00000+0  22265-4 0  9998
2 68131  50.0005  12.5340 0001695 156.1490 203.9492 14.00819949  1569
GUOWANG GROUP 20 OBJECT*
1 68132U 26047D   26083.60809546 -.00000105  00000+0  30365-4 0  9993
2 68132  50.0037   9.6473 0000221  23.0477 337.0436 14.01110084  1652
GUOWANG GROUP 20 OBJECT*
1 68133U 26047E   26081.32743227 -.00000117  00000+0  21599-4 0  9996
2 68133  50.0037  18.9087 0001845 286.6306  73.4395 14.03282701  1347
GUOWANG GROUP 20 OBJECT*
1 68134U 26047F   26081.53908163 -.00000024  00000+0  80292-4 0  9994
2 68134  50.0098  18.0376 0001549 290.5042  69.5697 14.03853988  1363
GUOWANG GROUP 20 OBJECT*
1 68135U 26047G   26081.61110949  .00000032  00000+0  11611-3 0  9997
2 68135  50.0130  17.7516 0002378 303.3923  56.6754 14.03554926  1388
GUOWANG GROUP 20 OBJECT*
1 68136U 26047H   26082.89133300 -.00000102  00000+0  31573-4 0  9994
2 68136  50.0075  12.5331 0001735 306.0179  54.0564 14.02326786  1554
GUOWANG GROUP 20 OBJECT*
1 68137U 26047J   26082.88983446 -.00000137  00000+0  91454-5 0  9991
2 68137  50.0081  12.5219 0000175 124.6965 235.3956 14.02259904  1568
